{"type": "FeatureCollection", "features": [{"type": "Feature", "properties": {"norad_id": 22490, "name": "SCD 1", "group": "resource", "lat": 14.997155909677476, "lon": 76.09508147556241, "alt_km": 762.7347651045357, "timestamp": "2025-12-10T16:57:11.291049+00:00", "meta": {"OBJECT_NAME": "SCD 1", "OBJECT_ID": "1993-009B", "EPOCH": "2025-12-10T04:53:32.246016", "MEAN_MOTION": 14.45996078, "ECCENTRICITY": 0.00417365, "INCLINATION": 24.9703, "RA_OF_ASC_NODE": 294.3414, "ARG_OF_PERICENTER": 298.0723, "MEAN_ANOMALY": 102.906, "EPHEMERIS_TYPE": 0, "CLASSIFICATION_TYPE": "U", "NORAD_CAT_ID": 22490, "ELEMENT_SET_NO": 999, "REV_AT_EPOCH": 73373, "BSTAR": 0.00014937956, "MEAN_MOTION_DOT": 7.32e-06, "MEAN_MOTION_DDOT": 0}, "tle": {"line1": "1 22490U 93009B   25344.20384544  .00000732  00000+0  14938-3 0  9995", "line2": "2 22490  24.9703 294.3414 0041736 298.0723 102.9060 14.45996078733737"}}, "geometry": {"type": "Point", "coordinates": [76.09508147556241, 14.997155909677476]}}, {"type": "Feature", "properties": {"norad_id": 25397, "name": "TECHSAT 1B (GO-32)", "group": "resource", "lat": -8.40680698540041, "lon": 146.5306262829137, "alt_km": 815.47640890393, "timestamp": "2025-12-10T16:57:11.291076+00:00", "meta": {"OBJECT_NAME": "TECHSAT 1B (GO-32)", "OBJECT_ID": "1998-043D", "EPOCH": "2025-12-10T09:19:40.960128", "MEAN_MOTION": 14.24375977, "ECCENTRICITY": 0.000213, "INCLINATION": 98.9918, "RA_OF_ASC_NODE": 327.5465, "ARG_OF_PERICENTER": 61.168, "MEAN_ANOMALY": 298.9711, "EPHEMERIS_TYPE": 0, "CLASSIFICATION_TYPE": "U", "NORAD_CAT_ID": 25397, "ELEMENT_SET_NO": 999, "REV_AT_EPOCH": 42445, "BSTAR": 9.4255e-05, "MEAN_MOTION_DOT": 1.71e-06, "MEAN_MOTION_DDOT": 0}, "tle": {"line1": "1 25397U 98043D   25344.38866852  .00000171  00000+0  94255-4 0  9991", "line2": "2 25397  98.9918 327.5465 0002130  61.1680 298.9711 14.24375977424457"}}, "geometry": {"type": "Point", "coordinates": [146.5306262829137, -8.40680698540041]}}, {"type": "Feature", "properties": {"norad_id": 25504, "name": "SCD 2", "group": "resource", "lat": 0.6441595000601726, "lon": -26.94674128000637, "alt_km": 743.2551436348185, "timestamp": "2025-12-10T16:57:11.291091+00:00", "meta": {"OBJECT_NAME": "SCD 2", "OBJECT_ID": "1998-060A", "EPOCH": "2025-12-10T05:20:00.938112", "MEAN_MOTION": 14.45421199, "ECCENTRICITY": 0.0016597, "INCLINATION": 24.9931, "RA_OF_ASC_NODE": 157.4199, "ARG_OF_PERICENTER": 286.7384, "MEAN_ANOMALY": 247.4751, "EPHEMERIS_TYPE": 0, "CLASSIFICATION_TYPE": "U", "NORAD_CAT_ID": 25504, "ELEMENT_SET_NO": 999, "REV_AT_EPOCH": 43295, "BSTAR": 0.00011777, "MEAN_MOTION_DOT": 6.04e-06, "MEAN_MOTION_DDOT": 0}, "tle": {"line1": "1 25504U 98060A   25344.22223308  .00000604  00000+0  11777-3 0  9994", "line2": "2 25504  24.9931 157.4199 0016597 286.7384 247.4751 14.45421199432951"}}, "geometry": {"type": "Point", "coordinates": [-26.94674128000637, 0.6441595000601726]}}, {"type": "Feature", "properties": {"norad_id": 25757, "name": "DLR-TUBSAT", "group": "resource", "lat": -22.053511035234262, "lon": 145.61909716446758, "alt_km": 713.5442621494385, "timestamp": "2025-12-10T16:57:11.291104+00:00", "meta": {"OBJECT_NAME": "DLR-TUBSAT", "OBJECT_ID": "1999-029B", "EPOCH": "2025-12-10T09:24:39.471264", "MEAN_MOTION": 14.52356238, "ECCENTRICITY": 0.0013759, "INCLINATION": 98.6562, "RA_OF_ASC_NODE": 328.8334, "ARG_OF_PERICENTER": 200.082, "MEAN_ANOMALY": 159.9835, "EPHEMERIS_TYPE": 0, "CLASSIFICATION_TYPE": "U", "NORAD_CAT_ID": 25757, "ELEMENT_SET_NO": 999, "REV_AT_EPOCH": 40584, "BSTAR": 7.36e-05, "MEAN_MOTION_DOT": 2.51e-06, "MEAN_MOTION_DDOT": 0}, "tle": {"line1": "1 25757U 99029B   25344.39212351  .00000251  00000+0  73600-4 0  9996", "line2": "2 25757  98.6562 328.8334 0013759 200.0820 159.9835 14.52356238405842"}}, "geometry": {"type": "Point", "coordinates": [145.61909716446758, -22.053511035234262]}}, {"type": "Feature", "properties": {"norad_id": 25994, "name": "TERRA", "group": "resource", "lat": -22.978733106988045, "lon": -146.9425122033945, "alt_km": 696.3700778090679, "timestamp": "2025-12-10T16:57:11.291116+00:00", "meta": {"OBJECT_NAME": "TERRA", "OBJECT_ID": "1999-068A", "EPOCH": "2025-12-10T09:30:00.919008", "MEAN_MOTION": 14.60897678, "ECCENTRICITY": 0.0003593, "INCLINATION": 97.9752, "RA_OF_ASC_NODE": 36.1664, "ARG_OF_PERICENTER": 99.131, "MEAN_ANOMALY": 271.7216, "EPHEMERIS_TYPE": 0, "CLASSIFICATION_TYPE": "U", "NORAD_CAT_ID": 25994, "ELEMENT_SET_NO": 999, "REV_AT_EPOCH": 38204, "BSTAR": 0.00015965, "MEAN_MOTION_DOT": 7.37e-06, "MEAN_MOTION_DDOT": 0}, "tle": {"line1": "1 25994U 99068A   25344.39584397  .00000737  00000+0  15965-3 0  9992", "line2": "2 25994  97.9752  36.1664 0003593  99.1310 271.7216 14.60897678382048"}}, "geometry": {"type": "Point", "coordinates": [-146.9425122033945, -22.978733106988045]}}, {"type": "Feature", "properties": {"norad_id": 27004, "name": "MAROC-TUBSAT", "group": "resource", "lat": 45.03376359140768, "lon": -16.929065754259316, "alt_km": 1004.0162596691252, "timestamp": "2025-12-10T16:57:11.291127+00:00", "meta": {"OBJECT_NAME": "MAROC-TUBSAT", "OBJECT_ID": "2001-056D", "EPOCH": "2025-12-10T11:07:51.424032", "MEAN_MOTION": 13.70252712, "ECCENTRICITY": 0.0019092, "INCLINATION": 99.7912, "RA_OF_ASC_NODE": 152.8689, "ARG_OF_PERICENTER": 266.2021, "MEAN_ANOMALY": 111.9402, "EPHEMERIS_TYPE": 0, "CLASSIFICATION_TYPE": "U", "NORAD_CAT_ID": 27004, "ELEMENT_SET_NO": 999, "REV_AT_EPOCH": 20034, "BSTAR": 4.2569e-05, "MEAN_MOTION_DOT": -9e-08, "MEAN_MOTION_DDOT": 0}, "tle": {"line1": "1 27004U 01056D   25344.46378963 -.00000009  00000+0  42569-4 0  9998", "line2": "2 27004  99.7912 152.8689 0019092 266.2021 111.9402 13.70252712200348"}}, "geometry": {"type": "Point", "coordinates": [-16.929065754259316, 45.03376359140768]}}, {"type": "Feature", "properties": {"norad_id": 27424, "name": "AQUA", "group": "resource", "lat": 69.64262941831194, "lon": -77.9259685819064, "alt_km": 680.0719147676164, "timestamp": "2025-12-10T16:57:11.291139+00:00", "meta": {"OBJECT_NAME": "AQUA", "OBJECT_ID": "2002-022A", "EPOCH": "2025-12-10T12:12:11.572992", "MEAN_MOTION": 14.61800641, "ECCENTRICITY": 0.0001003, "INCLINATION": 98.4035, "RA_OF_ASC_NODE": 305.3513, "ARG_OF_PERICENTER": 114.4534, "MEAN_ANOMALY": 356.0813, "EPHEMERIS_TYPE": 0, "CLASSIFICATION_TYPE": "U", "NORAD_CAT_ID": 27424, "ELEMENT_SET_NO": 999, "REV_AT_EPOCH": 25570, "BSTAR": 0.00036243, "MEAN_MOTION_DOT": 1.76e-05, "MEAN_MOTION_DDOT": 0}, "tle": {"line1": "1 27424U 02022A   25344.50846728  .00001760  00000+0  36243-3 0  9997", "line2": "2 27424  98.4035 305.3513 0001003 114.4534 356.0813 14.61800641255702"}}, "geometry": {"type": "Point", "coordinates": [-77.9259685819064, 69.64262941831194]}}, {"type": "Feature", "properties": {"norad_id": 28051, "name": "IRS-P6 (RESOURCESAT-1)", "group": "resource", "lat": 55.69400235030264, "lon": -142.56519928072217, "alt_km": 745.4805244040881, "timestamp": "2025-12-10T16:57:11.291149+00:00", "meta": {"OBJECT_NAME": "IRS-P6 (RESOURCESAT-1)", "OBJECT_ID": "2003-046A", "EPOCH": "2025-12-10T13:45:29.626848", "MEAN_MOTION": 14.36073511, "ECCENTRICITY": 0.0063964, "INCLINATION": 98.2176, "RA_OF_ASC_NODE": 25.0803, "ARG_OF_PERICENTER": 187.1911, "MEAN_ANOMALY": 329.0079, "EPHEMERIS_TYPE": 0, "CLASSIFICATION_TYPE": "U", "NORAD_CAT_ID": 28051, "ELEMENT_SET_NO": 999, "REV_AT_EPOCH": 15345, "BSTAR": 0.00012381, "MEAN_MOTION_DOT": 3.28e-06, "MEAN_MOTION_DDOT": 0}, "tle": {"line1": "1 28051U 03046A   25344.57325957  .00000328  00000+0  12381-3 0  9990", "line2": "2 28051  98.2176  25.0803 0063964 187.1911 329.0079 14.36073511153454"}}, "geometry": {"type": "Point", "coordinates": [-142.56519928072217, 55.69400235030264]}}, {"type": "Feature", "properties": {"norad_id": 28220, "name": "SHIYAN-1 (SY-1)", "group": "resource", "lat": 44.36919201385943, "lon": 38.324163870365645, "alt_km": 476.6298983225961, "timestamp": "2025-12-10T16:57:11.291160+00:00", "meta": {"OBJECT_NAME": "SHIYAN-1 (SY-1)", "OBJECT_ID": "2004-012A", "EPOCH": "2025-12-10T04:11:03.635232", "MEAN_MOTION": 15.28033489, "ECCENTRICITY": 0.00057877, "INCLINATION": 97.8933, "RA_OF_ASC_NODE": 45.561, "ARG_OF_PERICENTER": 335.8258, "MEAN_ANOMALY": 24.2708, "EPHEMERIS_TYPE": 0, "CLASSIFICATION_TYPE": "U", "NORAD_CAT_ID": 28220, "ELEMENT_SET_NO": 999, "REV_AT_EPOCH": 18217, "BSTAR": 0.00067493114, "MEAN_MOTION_DOT": 0.00018409, "MEAN_MOTION_DDOT": 0}, "tle": {"line1": "1 28220U 04012A   25344.17434763  .00018409  00000+0  67493-3 0  9997", "line2": "2 28220  97.8933  45.5610 0005787 335.8258  24.2708 15.28033489182172"}}, "geometry": {"type": "Point", "coordinates": [38.324163870365645, 44.36919201385943]}}, {"type": "Feature", "properties": {"norad_id": 28376, "name": "AURA", "group": "resource", "lat": -28.832401790806408, "lon": 110.30392483635353, "alt_km": 696.3801776064856, "timestamp": "2025-12-10T16:57:11.291171+00:00", "meta": {"OBJECT_NAME": "AURA", "OBJECT_ID": "2004-026A", "EPOCH": "2025-12-10T11:04:04.764000", "MEAN_MOTION": 14.60938361, "ECCENTRICITY": 0.0001198, "INCLINATION": 98.3182, "RA_OF_ASC_NODE": 294.6772, "ARG_OF_PERICENTER": 93.9724, "MEAN_ANOMALY": 266.1613, "EPHEMERIS_TYPE": 0, "CLASSIFICATION_TYPE": "U", "NORAD_CAT_ID": 28376, "ELEMENT_SET_NO": 999, "REV_AT_EPOCH": 13865, "BSTAR": 0.0003739, "MEAN_MOTION_DOT": 1.784e-05, "MEAN_MOTION_DDOT": 0}, "tle": {"line1": "1 28376U 04026A   25344.46116625  .00001784  00000+0  37390-3 0  9991", "line2": "2 28376  98.3182 294.6772 0001198  93.9724 266.1613 14.60938361138658"}}, "geometry": {"type": "Point", "coordinates": [110.30392483635353, -28.832401790806408]}}]}